HST                     
1 20580U 90037B   26201.38898824  .00003283  00000+0  98758-4 0  9991
2 20580  28.4721 213.5880 0002113 153.5255 206.5449 15.31091502793669
POLAR                   
1 23802U 96013A   26200.38703378  .00000162  00000+0  00000+0 0  9990
2 23802  79.8986 226.6697 6502662 207.9705  92.0144  1.29846046145278
SWAS                    
1 25560U 98071A   26201.54182146  .00001800  00000+0  11773-3 0  9995
2 25560  69.8945 141.4933 0007551 224.5083 135.5475 15.09767675502301
CXO                     
1 25867U 99040B   26203.75757577  .00000588  00000+0  00000+0 0  9992
2 25867  56.6521 115.7083 7776511 309.9609   0.5640  0.37802015 17458
XMM-NEWTON              
1 25989U 99066A   26201.25992622 -.00000007  00000+0  00000+0 0  9997
2 25989  64.3074 282.5600 4664570  64.3171   0.0365  0.50127970 23163
TERRA                   
1 25994U 99068A   26201.58940008  .00000183  00000+0  46306-4 0  9990
2 25994  97.9437 249.8082 0003599 112.2250  31.9400 14.61126180414480
CLUSTER II-FM7 (SAMBA)  
1 26410U 00041A   26201.60182196  .00010308 -30415-5  00000+0 0  9992
2 26410 149.8020  56.9135 9091714 274.4939 359.4480  0.44850593 20460
CLUSTER II-FM8 (TANGO)  
1 26464U 00045B   26199.95355120  .00014903 -89736-5  00000+0 0  9993
2 26464 150.0065  57.8200 9095390 275.2268   2.0610  0.44421506 20456
ODIN                    
1 26702U 01007A   26201.08652123  .00328733  43055-4  97864-3 0  9997
2 26702  97.3670 244.4948 0005124 155.1636 204.9886 15.92415357394606
TIMED                   
1 26998U 01055B   26201.32615627  .00000610  00000+0  58910-4 0  9991
2 26998  74.0670 168.2903 0002355 294.6968  65.3972 14.95350961335778
CORIOLIS                
1 27640U 03001A   26201.24519807  .00000042  00000+0  40098-4 0  9990
2 27640  98.7137 207.6264 0015098 115.7333 244.5404 14.19952733218917
SORCE                   
1 27651U 03004A   26201.34466207  .00001399  00000+0  11043-3 0  9994
2 27651  39.9917  72.4763 0018717 288.9832  70.8934 15.03857228276898
MOST                    
1 27843U 03031D   26201.01611822  .00000014  00000+0  26216-4 0  9998
2 27843  98.7054 208.2849 0010366 151.7427 208.4314 14.21328318195375
SCISAT 1                
1 27858U 03036A   26201.17969820  .00000296  00000+0  42452-4 0  9992
2 27858  73.9302 105.7914 0007118 172.5723 187.5560 14.81482145236334
SWIFT                   
1 28485U 04047A   26201.48072621  .00042132  00000+0  30446-3 0  9994
2 28485  20.5519 287.4489 0002642  83.1117 276.9630 15.71579695192109
HINODE (SOLAR-B)        
1 29479U 06041A   26201.02449976  .00000275  00000+0  55600-4 0  9997
2 29479  98.0548 216.6933 0017428 178.9775 181.1469 14.68661504 59693
SHIJIAN-6 02A (SJ-6 02A)
1 29505U 06046A   26201.59715524  .00003864  00000+0  19749-3 0  9999
2 29505  97.6342 242.9191 0003881  51.2932 308.8648 15.17280070 77332
SHIJIAN-6 02B (SJ-6 02B)
1 29506U 06046B   26201.60234014  .00000537  00000+0  46290-4 0  9998
2 29506  97.7139 230.4539 0012735 316.8944  43.1282 15.01443076 75754
FGRST (GLAST)           
1 33053U 08029A   26201.48987118  .00001976  00000+0  65598-4 0  9999
2 33053  25.5829 333.2182 0008077   3.2221 356.8368 15.24094392   773
SDO                     
1 36395U 10005A   26200.24111708 -.00000094  00000+0  00000+0 0  9998
2 36395  34.7163  85.8540 0001721  43.5863 152.2121  1.00277469 60389
CRYOSAT 2               
1 36508U 10013A   26201.57671918  .00000054  00000+0  12562-4 0  9990
2 36508  92.0355 285.4188 0002468  98.8996 261.2491 14.51899383862926
X-SAT                   
1 37389U 11015C   26201.57297884 -.00000105  00000+0 -27116-4 0  9997
2 37389  98.3538 177.0100 0012775 243.3693 116.6180 14.25213876792433
GCOM-W1 (SHIZUKU)       
1 38337U 12025A   26201.34734405  .00000217  00000+0  58208-4 0  9991
2 38337  98.2024 141.4015 0001273  79.6023  33.8414 14.57092749753867
NUSTAR                  
1 38358U 12031A   26201.66668981 -.00001362  00000+0 -13581-3 0  9999
2 38358   6.0260 142.9486 0009155 251.4823  42.7150 15.09073704  1301
NEOSSAT                 
1 39089U 13009D   26201.44987581  .00000056  00000+0  34019-4 0  9990
2 39089  98.4195  20.6942 0011746 142.5208 217.6799 14.35836670701519
BRITE-AUSTRIA           
1 39091U 13009F   26201.43193589  .00000073  00000+0  39374-4 0  9997
2 39091  98.4013  20.0477 0011031 136.1688 224.0376 14.36553717701822
IRIS                    
1 39197U 13033A   26201.49805018  .00000509  00000+0  64438-4 0  9997
2 39197  97.9318  40.6699 0023688 206.9802 153.0184 14.85943068705323
HISAKI (SPRINT-A)       
1 39253U 13049A   26201.27030402  .00000090  00000+0  31825-4 0  9999
2 39253  29.7218  51.8110 0136969 285.0027  73.5421 13.55547025635910
CASSIOPE                
1 39265U 13055A   26201.52368764  .00015416 -52109-6  16493-3 0  9998
2 39265  80.9139  26.1440 0281920 309.7902  47.8809 15.27593412672758
STSAT-3                 
1 39422U 13066G   26201.60370179  .00001914  00000+0  14702-3 0  9991
2 39422  97.6212 170.9527 0008791 283.4061  76.6184 15.02906795689222
